NORAD_CAT_ID,OBJECT_NAME,OBJECT_TYPE,EPOCH,MEAN_MOTION,ECCENTRICITY,INCLINATION,RA_OF_ASC_NODE,ARG_OF_PERICENTER,MEAN_ANOMALY,BSTAR,MEAN_MOTION_DOT,MEAN_MOTION_DDOT,TLE_LINE0,TLE_LINE1,TLE_LINE2,SEMIMAJOR_AXIS,PERIOD,APOGEE,PERIGEE,DECAYED
52370.0,STARLINK-3827,PAYLOAD,2022-05-04 18:00:02,15.84085657,0.0001026,53.2176,52.3927,64.3529,353.3832,-0.0042222,-0.00877597,0.0,0 STARLINK-3827,1 52370U 22045AR  22124.75002315 -.00877597  00000-0 -42222-2 0  9993,2 52370  53.2176  52.3927 0001026  64.3529 353.3832 15.84085657  3312,6697.038000000001,90.904,319.59,318.215,0.0
52370.0,STARLINK-3827,PAYLOAD,2022-05-05 14:00:01,15.82511334,0.0001073,53.2174,48.2074,73.2574,57.054,-0.0045338,-0.00874511,0.0,0 STARLINK-3827,1 52370U 22045AR  22125.58334491 -.00874511  00000-0 -45338-2 0  9992,2 52370  53.2174  48.2074 0001073  73.2574  57.0540 15.82511334  3440,6701.478,90.995,324.062,322.624,0.0
52370.0,STARLINK-3827,PAYLOAD,2022-05-05 22:00:00,15.81884134,0.0001167,53.2176,46.5365,80.0588,149.9847,-0.0046904,-0.00878015,0.0,0 STARLINK-3827,1 52370U 22045AR  22125.91667824 -.00878015  00000-0 -46904-2 0  9991,2 52370  53.2176  46.5365 0001167  80.0588 149.9847 15.81884134  1462,6703.25,91.031,325.897,324.332,0.0
52370.0,STARLINK-3827,PAYLOAD,2022-05-06 08:00:01,15.81016502,0.0001063,53.2163,44.4506,81.8609,1.8254,-0.0042263,-0.00769414,0.0,0 STARLINK-3827,1 52370U 22045AR  22126.33334491 -.00769414  00000-0 -42263-2 0  9995,2 52370  53.2163  44.4506 0001063  81.8609   1.8254 15.81016502  3567,6705.7019999999975,91.081,328.28,326.8540000000001,0.0
52370.0,STARLINK-3827,PAYLOAD,2022-05-06 14:00:01,15.80623102,9.58e-05,53.2176,43.1971,86.9556,340.2875,-0.0049479999999999,-0.00873624,0.0,0 STARLINK-3827,1 52370U 22045AR  22126.58334491 -.00873624  00000-0 -49480-2 0  9999,2 52370  53.2176  43.1971 0000958  86.9556 340.2875 15.80623102  1579,6706.814,91.103,329.32199999999995,328.037,0.0
52370.0,STARLINK-3827,PAYLOAD,2022-05-06 22:00:00,15.79994756,0.0001175,53.2177,41.5309,71.9372,92.7692,-0.0051021,-0.00874955,0.0,0 STARLINK-3827,1 52370U 22045AR  22126.91667824 -.00874955  00000-0 -51021-2 0  9997,2 52370  53.2177  41.5309 0001175  71.9372  92.7692 15.79994756  3650,6708.592,91.14,331.246,329.6690000000001,0.0
52370.0,STARLINK-3827,PAYLOAD,2022-05-07 14:00:01,15.78735081,9.25e-05,53.2173,38.2008,90.7235,266.6449,-0.0053924,-0.00872971,0.0,0 STARLINK-3827,1 52370U 22045AR  22127.58334491 -.00872971  00000-0 -53924-2 0  9992,2 52370  53.2173  38.2008 0000925  90.7235 266.6449 15.78735081  1736,6712.161,91.212,334.646,333.405,0.0
52370.0,STARLINK-3827,PAYLOAD,2022-05-07 20:00:01,15.78267157,0.0001006,53.2175,36.9542,90.2021,248.6317,-0.0055491,-0.00878842,0.0,0 STARLINK-3827,1 52370U 22045AR  22127.83334491 -.00878842  00000-0 -55491-2 0  9994,2 52370  53.2175  36.9542 0001006  90.2021 248.6317 15.78267157  3791,6713.486999999999,91.239,336.028,334.677,0.0
52370.0,STARLINK-3827,PAYLOAD,2022-05-07 22:00:00,15.78107587,0.0001049,53.2173,36.5396,75.8038,16.7586,-0.0055653,-0.00875432,0.0,0 STARLINK-3827,1 52370U 22045AR  22127.91667824 -.00875432  00000-0 -55653-2 0  9994,2 52370  53.2173  36.5396 0001049  75.8038  16.7586 15.78107587  1785,6713.94,91.249,336.509,335.1,0.0
52370.0,STARLINK-3827,PAYLOAD,2022-05-08 14:00:01,15.76847734,0.0001088,53.2175,33.2182,98.629,182.058,-0.0058718999999999,-0.00873017,0.0,0 STARLINK-3827,1 52370U 22045AR  22128.58334491 -.00873017  00000-0 -58719-2 0  9992,2 52370  53.2175  33.2182 0001088  98.6290 182.0580 15.76847734  1885,6717.515,91.321,340.111,338.65,0.0
52370.0,STARLINK-3827,PAYLOAD,2022-05-08 20:00:01,15.76377606,0.0001159,53.2178,31.9755,95.9969,164.4553,-0.006017,-0.00875751,0.0,0 STARLINK-3827,1 52370U 22045AR  22128.83334491 -.00875751  00000-0 -60170-2 0  9991,2 52370  53.2178  31.9755 0001159  95.9969 164.4553 15.76377606  3951,6718.851,91.349,341.495,339.9369999999999,0.0
52370.0,STARLINK-3827,PAYLOAD,2022-05-08 22:00:00,15.76220598,9.61e-05,53.2177,31.5618,91.3636,282.2495,-0.0060633,-0.00876228,0.0,0 STARLINK-3827,1 52370U 22045AR  22128.91667824 -.00876228  00000-0 -60633-2 0  9993,2 52370  53.2177  31.5618 0000961  91.3636 282.2495 15.76220598  1943,6719.297,91.358,341.80800000000005,340.516,0.0
52370.0,STARLINK-3827,PAYLOAD,2022-05-09 14:00:01,15.7496032,0.0001153,53.2171,28.2496,92.3885,104.8773,-0.0063839,-0.0087298999999999,0.0,0 STARLINK-3827,1 52370U 22045AR  22129.58335648 -.00872990  00000-0 -63839-2 0  9996,2 52370  53.2171  28.2496 0001153  92.3885 104.8773 15.74960320  2047,6722.880999999999,91.431,345.521,343.971,0.0
52370.0,STARLINK-3827,PAYLOAD,2022-05-09 22:00:00,15.74331431,0.0001124,53.2173,26.5981,94.3812,193.4767,-0.0065705,-0.00873979,0.0,0 STARLINK-3827,1 52370U 22045AR  22129.91667824 -.00873979  00000-0 -65705-2 0  9999,2 52370  53.2173  26.5981 0001124  94.3812 193.4767 15.74331431  2108,6724.670999999999,91.467,347.292,345.78,0.0
52370.0,STARLINK-3827,PAYLOAD,2022-05-10 00:00:00,15.74176923,0.0001012,53.2173,26.1856,85.1568,315.2463,-0.0066604,-0.00879366,0.0,0 STARLINK-3827,1 52370U 22045AR  22130.00001157 -.00879366  00000-0 -66604-2 0  9997,2 52370  53.2173  26.1856 0001012  85.1568 315.2463 15.74176923  4132,6725.111,91.476,347.657,346.296,0.0
52370.0,STARLINK-3827,PAYLOAD,2022-05-10 14:00:01,15.73205318,0.0001056,53.2173,23.295,101.3779,5.5503,-1.621e-05,-2.894e-05,0.0,0 STARLINK-3827,1 52370U 22045AR  22130.58334491 -.00002894  00000-0 -16210-4 0  9994,2 52370  53.2173  23.2950 0001056 101.3779   5.5503 15.73205318  4233,6727.88,91.533,350.455,349.035,0.0
52370.0,STARLINK-3827,PAYLOAD,2022-05-10 18:00:00,15.73187381,5.96e-05,53.2139,22.4729,116.9849,214.4204,0.00024543,0.00033945,0.0,0 STARLINK-3827,1 52370U 22045AR  22130.75001157  .00033945  00000-0  24543-3 0  9999,2 52370  53.2139  22.4729 0000596 116.9849 214.4204 15.73187381  2234,6727.931,91.534,350.19699999999995,349.395,0.0
52370.0,STARLINK-3827,PAYLOAD,2022-05-11 22:00:00,15.7327246,7.659999999999999e-05,53.2129,16.7011,98.9246,3.8755,-0.00065931,-0.0009242,0.0,0 STARLINK-3827,1 52370U 22045AR  22131.91667824 -.00092420  00000-0 -65931-3 0  9998,2 52370  53.2129  16.7011 0000766  98.9246   3.8755 15.73272460  4441,6727.689,91.529,350.069,349.038,0.0
52370.0,STARLINK-3827,PAYLOAD,2022-05-12 04:00:00,15.73192315,8.4e-05,53.2129,15.4645,91.2354,348.3194,0.00062286,0.00087682,0.0,0 STARLINK-3827,1 52370U 22045AR  22132.16667824  .00087682  00000-0  62286-3 0  9998,2 52370  53.2129  15.4645 0000840  91.2354 348.3194 15.73192315  4487,6727.917,91.534,350.347,349.217,0.0
52370.0,STARLINK-3827,PAYLOAD,2022-05-12 14:00:01,15.73226639,0.0001118,53.213,13.4,104.8137,175.9522,-0.00019009,-0.00027241,0.0,0 STARLINK-3827,1 52370U 22045AR  22132.58334491 -.00027241  00000-0 -19009-3 0  9997,2 52370  53.2130  13.4000 0001118 104.8137 175.9522 15.73226639  1305,6727.819,91.532,350.436,348.932,0.0
52370.0,STARLINK-3827,PAYLOAD,2022-05-12 20:00:01,15.7322228,0.0001281,53.2131,12.1642,97.3591,160.1309,-5.7608e-05,-8.704e-05,0.0,0 STARLINK-3827,1 52370U 22045AR  22132.83334491 -.00008704  00000-0 -57608-4 0  9996,2 52370  53.2131  12.1642 0001281  97.3591 160.1309 15.73222280  4585,6727.831999999999,91.532,350.55800000000005,348.835,0.0
52370.0,STARLINK-3827,PAYLOAD,2022-05-12 22:00:00,15.73202693,0.0001284,53.2129,11.7522,94.4077,275.3262,0.00024148,0.00033409,0.0,0 STARLINK-3827,1 52370U 22045AR  22132.91667824  .00033409  00000-0  24148-3 0  9994,2 52370  53.2129  11.7522 0001284  94.4077 275.3262 15.73202693  1304,6727.887,91.533,350.616,348.889,0.0
52370.0,STARLINK-3827,PAYLOAD,2022-05-13 14:00:01,15.73138152,8.37e-05,53.2124,8.4512,117.5069,70.0956,0.00046589,0.00065099,0.0,0 STARLINK-3827,1 52370U 22045AR  22133.58334491  .00065099  00000-0  46589-3 0  9992,2 52370  53.2124   8.4512 0000837 117.5069  70.0956 15.73138152  4707,6728.071999999999,91.537,350.5,349.37300000000016,0.0
52370.0,STARLINK-3827,PAYLOAD,2022-05-13 22:00:00,15.73187781,7.509999999999998e-05,53.2125,6.8038,102.111,174.3596,-5.0715e-05,-7.726e-05,0.0,0 STARLINK-3827,1 52370U 22045AR  22133.91667824 -.00007726  00000-0 -50715-4 0  9990,2 52370  53.2125   6.8038 0000751 102.1110 174.3596 15.73187781  1308,6727.93,91.534,350.3,349.29,0.0
52370.0,STARLINK-3827,PAYLOAD,2022-05-14 06:00:00,15.73193421,7.57e-05,53.2131,5.1538,98.8281,266.5757,-1.0496e-05,-2.091e-05,0.0,0 STARLINK-3827,1 52370U 22045AR  22134.25001157 -.00002091  00000-0 -10496-4 0  9991,2 52370  53.2131   5.1538 0000757  98.8281 266.5757 15.73193421  4807,6727.9140000000025,91.534,350.288,349.27,0.0
52370.0,STARLINK-3827,PAYLOAD,2022-05-14 14:00:01,15.73196329,9.32e-05,53.2139,3.5025,110.0551,344.2812,0.00069543,0.0009811,0.0,0 STARLINK-3827,1 52370U 22045AR  22134.58334491  .00098110  00000-0  69543-3 0  9998,2 52370  53.2139   3.5025 0000932 110.0551 344.2812 15.73196329  4862,6727.906,91.533,350.398,349.144,0.0
52370.0,STARLINK-3827,PAYLOAD,2022-05-14 22:00:00,15.73269044,0.0001016,53.2143,1.8548,92.8601,90.4538,-0.00029429,-0.00041837,0.0,0 STARLINK-3827,1 52370U 22045AR  22134.91667824 -.00041837  00000-0 -29429-3 0  9999,2 52370  53.2143   1.8548 0001016  92.8601  90.4538 15.73269044  1301,6727.698,91.529,350.247,348.88,0.0
52370.0,STARLINK-3827,PAYLOAD,2022-05-15 06:00:00,15.73302807,0.0001042,53.2136,0.2045,98.6689,173.6349,-0.0008861,-0.00123705,0.0,0 STARLINK-3827,1 52370U 22045AR  22135.25001157 -.00123705  00000-0 -88610-3 0  9990,2 52370  53.2136   0.2045 0001042  98.6689 173.6349 15.73302807  4961,6727.602,91.527,350.168,348.766,0.0
52370.0,STARLINK-3827,PAYLOAD,2022-05-15 14:00:01,15.73180227,0.0001142,53.2138,358.5533,111.0113,250.3351,-0.0002831,-0.00040127,0.0,0 STARLINK-3827,1 52370U 22045AR  22135.58335648 -.00040127  00000-0 -28310-3 0  9998,2 52370  53.2138 358.5533 0001142 111.0113 250.3351 15.73180227  1308,6727.9519999999975,91.534,350.585,349.048,0.0
